P/2010 H5 (Scotti),e,14.0689,24.8101,175.3172,7.157268,0.0514734,0.15387670,195.5590,09/05.0/2020,2000,g 13.0,2.0
# From MPC 98558
P/2010 J3 (McMillan),e,13.2904,106.4060,157.5784,8.969015,0.0366933,0.72739966,134.2551,09/05.0/2020,2000,g 11.0,4.0
# From MPC 84315
P/2010 JC81 (WISE),e,38.7049,30.8400,12.4486,8.111880,0.0426601,0.77655721,146.2030,09/05.0/2020,2000,g  9.0,4.0
# From MPC 74248
P/2010 T2 (PANSTARRS),e,7.9261,59.1264,353.8402,5.507161,0.0762627,0.32159968,260.9073,09/05.0/2020,2000,g 11.5,4.0
# From MPC 98558
P/2010 TO20 (LINEAR-Grauer),e,2.4793,43.2992,266.7618,5.828292,0.0700474,0.05436592,303.5636,09/05.0/2020,2000,g  9.0,4.0
# From MPC 82316
P/2010 U1 (Boattini),e,8.2140,280.7192,85.8809,6.512922,0.0592980,0.24782927,230.0386,09/05.0/2020,2000,g  9.5,4.0
# From MPC119994
C/2010 U3 (Boattini),e,55.5185,43.0386,88.0745,2513,0.0000078,0.99663899,0.0000,02/26.0237/2019,2000,g  1.0,4.0
# From MPC 79021
P/2010 UH55 (Spacewatch),e,8.0486,233.0158,225.1847,6.650123,0.0574724,0.56360381,197.1190,09/05.0/2020,2000,g 11.0,4.0
# From MPC 75009
P/2010 WK (LINEAR),e,11.4002,11.3136,40.9981,5.759643,0.0713035,0.68970226,258.9809,09/05.0/2020,2000,g 14.5,2.0
# From MPC 82317
P/2011 A2 (Scotti),e,4.4752,54.6752,94.5379,3.105059,0.1801355,0.49938974,278.4514,09/05.0/2020,2000,g 16.5,4.0
# From MPC 84021
P/2011 C2 (Gibbs),e,10.8853,12.1231,161.0508,7.414239,0.0488207,0.26905816,154.6179,09/05.0/2020,2000,g  9.0,4.0
# From MPC 79866
P/2011 FR143 (Lemmon),e,15.9899,190.9499,350.1468,6.855908,0.0549043,0.45115962,190.6594,09/05.0/2020,2000,g 14.0,2.0
# From MPC 82317
P/2011 JB15 (Spacewatch-Boattini),e,19.1462,153.6001,110.9724,7.353089,0.0494310,0.31822328,155.5479,09/05.0/2020,2000,g  9.0,4.0
# From MPEC 2020-AA5
C/2011 KP36 (Spacewatch),e,18.9837,173.3057,180.6375,38.83263,0.0040729,0.87435497,6.3599,09/05.0/2020,2000,g  4.5,4.0
# From MPC 87913
P/2011 N1 (ASH),e,35.7099,77.6054,330.3420,6.250601,0.0630698,0.54353757,191.1812,09/05.0/2020,2000,g 11.5,4.0
# From MPC 75714
P/2011 NO1 (Elenin),e,15.2490,295.7894,263.8366,5.522795,0.0759391,0.77496893,266.7553,09/05.0/2020,2000,g 15.0,4.0
# From MPC 82318
P/2011 P1 (McNaught),e,5.6571,4.2412,348.8814,7.469671,0.0482783,0.32680257,178.7305,09/05.0/2020,2000,g  9.0,4.0
# From MPC 77806
P/2011 Q3 (McNaught),e,6.0565,32.0245,310.9708,4.970468,0.0889423,0.53249217,296.5368,09/05.0/2020,2000,g 13.5,4.0
# From MPC 90269
P/2011 R3 (Novichonok-Gerke),e,19.2598,189.6448,225.2000,4.778207,0.0943641,0.27178562,288.8312,09/05.0/2020,2000,g 11.0,4.0
# From MPC 98558
P/2011 S1 (Gibbs),e,2.6836,218.9089,192.5325,8.589033,0.0391550,0.20006979,86.7836,09/05.0/2020,2000,g  8.0,4.0
# From MPC115880
P/2011 U2 (Bressi),e,9.9000,263.2407,155.2740,4.890369,0.0911364,0.13490420,262.4478,09/05.0/2020,2000,g 10.0,4.0
# From MPC 79022
P/2011 UA134 (Spacewatch-PANSTARRS),e,10.4441,40.4297,32.4645,5.603147,0.0743115,0.62930015,239.0263,09/05.0/2020,2000,g 17.5,4.0
# From MPC 77406
P/2011 V1 (Boattini),e,7.3774,46.8532,269.2359,3.854500,0.1302423,0.55063083,91.6759,09/05.0/2020,2000,g 15.5,4.0
# From MPC 82718
P/2011 W1 (PANSTARRS),e,3.7186,161.7901,282.7283,4.660103,0.0979740,0.28700184,308.9829,09/05.0/2020,2000,g 11.5,4.0
# From MPC 79342
P/2011 Y2 (Boattini),e,6.3714,309.3689,131.9388,6.239673,0.0632356,0.70921531,196.3038,09/05.0/2020,2000,g 15.0,4.0
# From MPC 94669
P/2012 B1 (PANSTARRS),e,7.6162,36.1984,162.5930,6.527209,0.0591034,0.40991726,153.8585,09/05.0/2020,2000,g  9.0,4.0
# From MPC 78590
P/2012 C3 (PANSTARRS),e,9.0920,135.3677,344.9542,9.748681,0.0323806,0.63011148,359.9758,10/06.0/2011,2000,g 13.0,4.0
# From MPC 84931
P/2012 F2 (PANSTARRS),e,14.7271,227.0619,33.2459,6.328155,0.0619139,0.54285222,167.2685,09/05.0/2020,2000,g 12.0,4.0
# From MPC 79344
P/2012 G1 (PANSTARRS),e,11.6925,282.5440,286.1149,4.172871,0.1156250,0.38072240,359.9500,06/01.0/2012,2000,g 15.0,4.0
# From MPC 80898
P/2012 K3 (Gibbs),e,13.1946,125.8086,172.1389,3.624515,0.1428332,0.42348911,54.9208,09/05.0/2020,2000,g 15.0,4.0
# From MPC 88326
P/2012 NJ (La Sagra),e,84.6542,315.5503,338.3231,8.458334,0.0400661,0.84741023,120.4418,09/05.0/2020,2000,g 14.5,4.0
# From MPC 81470
P/2012 O1 (McNaught),e,7.4330,91.9840,238.2133,3.539968,0.1479807,0.59453348,81.7720,09/05.0/2020,2000,g 17.5,4.0
# From MPC 80899
P/2012 O2 (McNaught),e,24.4865,120.6785,183.3963,3.622701,0.1429405,0.53282333,69.7385,09/05.0/2020,2000,g 17.0,4.0
# From MPC 82720
P/2012 O3 (McNaught),e,16.6139,336.4086,344.7017,4.575278,0.1007112,0.64691579,296.3737,09/05.0/2020,2000,g 16.5,4.0
# From MPC 82720
P/2012 S2 (La Sagra),e,8.6874,51.1928,312.5058,4.410636,0.1064026,0.69116195,315.1181,09/05.0/2020,2000,g 17.0,4.0
# From MPC 82720
P/2012 SB6 (Lemmon),e,10.9285,8.2091,14.4044,3.825937,0.1317035,0.40488814,10.2058,09/05.0/2020,2000,g 14.0,4.0
# From MPC 82320
P/2012 T2 (PANSTARRS),e,12.5557,73.7312,310.4314,5.738061,0.0717061,0.16066578,193.3026,09/05.0/2020,2000,g 10.0,4.0
# From MPC 80900
P/2012 T3 (PANSTARRS),e,9.5687,114.4081,195.4385,6.152552,0.0645834,0.61719217,196.9095,09/05.0/2020,2000,g 15.0,4.0
# From MPC 87914
P/2012 TK8 (Tenagra),e,6.3405,288.9699,127.8836,4.129516,0.1174506,0.27433638,311.1965,09/05.0/2020,2000,g 13.0,4.0
# From MPC 82720
P/2012 U2 (PANSTARRS),e,10.7486,185.2719,228.3278,7.143172,0.0516259,0.49772495,147.5561,09/05.0/2020,2000,g 12.5,4.0
# From MPC 84024
P/2012 US27 (Siding Spring),e,39.3285,49.1706,0.8217,5.166237,0.0839349,0.64736799,233.3735,09/05.0/2020,2000,g 13.5,4.0
# From MPC 82721
P/2012 WA34 (Lemmon-PANSTARRS),e,6.1174,94.4639,353.0718,4.764870,0.0947605,0.34236008,262.4833,09/05.0/2020,2000,g 13.5,4.0
# From MPC 84024
P/2013 A2 (Scotti),e,3.3613,355.8140,134.5437,4.013625,0.1225741,0.45438017,339.9228,09/05.0/2020,2000,g 15.5,4.0
# From MPC 82721
P/2013 AL76 (Catalina),e,144.8077,145.9520,27.1262,6.497987,0.0595026,0.68607030,168.0900,09/05.0/2020,2000,g 16.0,4.0
# From MPC115880
C/2013 C2 (Tenagra),e,21.3397,247.5308,309.5459,16.00697,0.0153901,0.42782316,27.9865,09/05.0/2020,2000,g  4.0,4.0
# From MPC 88695
P/2013 EW90 (Tenagra),e,31.7878,160.2962,346.3488,4.116426,0.1180113,0.19493140,340.6722,09/05.0/2020,2000,g 12.0,4.0
# From MPC 91612
P/2013 G1 (Kowalski),e,5.4685,221.4114,51.3676,6.886708,0.0545364,0.51326813,134.0174,09/05.0/2020,2000,g 11.0,4.0
# From MPC 84025
P/2013 G4 (PANSTARRS),e,5.9161,339.6452,214.7180,4.439140,0.1053794,0.40966232,291.2394,09/05.0/2020,2000,g 15.0,4.0
# From MPC 91613
P/2013 J2 (McNaught),e,15.5354,289.4283,37.7210,6.223462,0.0634828,0.65744603,162.9033,09/05.0/2020,2000,g 13.0,4.0
# From MPC 87066
P/2013 J4 (PANSTARRS),e,5.0352,84.0011,118.7706,2.475100,0.2531133,0.23099371,359.9443,11/04.0/2013,2000,g 14.0,4.0
# From MPC 86229
P/2013 N3 (PANSTARRS),e,2.1730,17.5010,323.8420,7.390791,0.0490532,0.59299769,117.4533,09/05.0/2020,2000,g 13.0,4.0
# From MPC 85834
P/2013 N5 (PANSTARRS),e,23.4150,187.1695,176.8828,6.799751,0.0555859,0.73169554,145.7657,09/05.0/2020,2000,g 17.0,4.0
# From MPC 87479
P/2013 O2 (PANSTARRS),e,13.3185,207.1513,214.2614,3.789728,0.1335956,0.44682172,325.3145,09/05.0/2020,2000,g 14.0,4.0
# From MPC 85834
P/2013 P1 (PANSTARRS),e,18.7193,160.6264,138.0760,8.567281,0.0393043,0.60614433,107.8611,09/05.0/2020,2000,g 12.0,4.0
# From MPC 94671
P/2013 R3 (Catalina-PANSTARRS),e,0.8653,342.0012,11.1537,3.034004,0.1865004,0.27501702,119.0476,09/05.0/2020,2000,g 14.0,4.0
# From unp
P/2013 R3-A (Catalina-PANSTARRS),e,0.8647,341.9680,11.1926,3.033863,0.1865135,0.27498641,119.0787,09/05.0/2020,2000,g  9.0,4.0
# From MPEC 2015-M77
P/2013 R3-B (Catalina-PANSTARRS),e,0.8660,342.0239,11.1276,3.034081,0.1864934,0.27503209,119.0309,09/05.0/2020,2000,g  9.0,4.0
# From MPC 85835
P/2013 T1 (PANSTARRS),e,24.2701,10.0913,346.0727,5.861952,0.0694449,0.62347433,180.0142,09/05.0/2020,2000,g 16.5,4.0
# From MPC 86643
P/2013 T2 (Schwartz),e,9.4559,0.8195,345.4713,3.488986,0.1512360,0.50114615,42.2591,09/05.0/2020,2000,g 16.0,4.0
# From MPC 88696
P/2013 TL117 (Lemmon),e,9.3648,3.3151,112.2475,3.609858,0.1437040,0.68920930,344.1661,09/05.0/2020,2000,g 17.5,4.0
# From MPC110080
C/2013 US10 (Catalina),h,11/16.7830/2015,148.7710,186.3952,340.5889,1.000625,0.821204,2000,4.4,4.0
# From MPC111767
C/2013 V4 (Catalina),e,67.8881,55.6087,40.3280,3166,0.0000055,0.99836377,0.0000,10/05.4475/2015,2000,g  6.0,4.0
# From MPC 91613
P/2013 W1 (PANSTARRS),e,4.6955,117.8478,1.2959,3.491162,0.1510947,0.59286058,359.1974,09/05.0/2020,2000,g 17.5,4.0
# From MPC111767
C/2013 X1 (PANSTARRS),h,04/19.4706/2016,163.1938,131.5733,165.1548,1.000413,1.322430,2000,10.5,2.0
# From MPC101095
P/2013 YG46 (Spacewatch),e,7.8559,48.8727,242.4847,3.276480,0.1661853,0.45491614,218.2529,09/05.0/2020,2000,g 10.0,4.0
# From MPC 89728
P/2014 A2 (Hill),e,24.5447,106.6284,356.2566,5.925854,0.0683247,0.64560168,171.8609,09/05.0/2020,2000,g 15.0,4.0
# From MPC 92981
P/2014 A3 (PANSTARRS),e,13.6804,230.2369,212.7160,4.632719,0.0988440,0.24648383,265.7128,09/05.0/2020,2000,g 12.0,4.0
# From MPC108592
C/2014 A4 (SONEAR),e,121.3822,29.6596,356.5745,2590,0.0000075,0.99838841,0.0000,09/03.8447/2015,2000,g  6.0,4.0
# From MPC119994
C/2014 B1 (Schwartz),e,28.4040,161.4102,345.7973,13551,0.0000006,0.99929490,0.0000,09/09.2918/2017,2000,g  4.0,4.0
# From MPC102095
P/2014 C1 (TOTAS),e,2.6844,167.7704,24.0888,3.041715,0.1857917,0.44737327,94.8766,09/05.0/2020,2000,g 15.5,4.0
# From MPC 91614
P/2014 E1 (Larson),e,15.9762,39.0323,186.0195,3.712062,0.1378102,0.42352809,316.1480,09/05.0/2020,2000,g 14.0,4.0
# From MPC 94280
C/2014 F3 (Sheppard-Trujillo),e,6.5661,326.8046,2.8321,16.01233,0.0153823,0.64436796,356.1725,09/05.0/2020,2000,g  6.0,4.0
# From MPC 98560
P/2014 L2 (NEOWISE),e,5.1969,149.3504,182.6373,6.303697,0.0622746,0.64803700,139.5293,09/05.0/2020,2000,g 12.0,4.0
# From MPC 90769
P/2014 L3 (Hill),e,6.2779,115.4693,178.6270,8.166005,0.0422367,0.77393251,95.3544,09/05.0/2020,2000,g 16.0,4.0
# From MPC103844
C/2014 M1 (PANSTARRS),e,160.2209,234.7964,337.1890,43406,0.0000001,0.99987100,0.0000,08/28.0612/2015,2000,g  9.0,4.0
# From MPC 91614
